{
  "type": "FeatureCollection",
  "features": [
    {
      "type": "Feature",
      "properties": {
        "norad_id": 66590,
        "name": "STARLINK-35429",
        "group": "last-30-days",
        "lat": -22.41942318021685,
        "lon": -19.311215426269847,
        "alt_km": 445.6326274064804,
        "timestamp": "2025-12-22T18:58:52.136820+00:00",
        "meta_object_name": "STARLINK-35429",
        "meta_object_id": "2025-270C",
        "meta_epoch": "2025-12-22T02:29:54.193344",
        "meta_mean_motion": 15.40715524,
        "meta_eccentricity": 0.00013972,
        "meta_inclination": 43.0006,
        "meta_ra_of_asc_node": 138.3695,
        "meta_arg_of_pericenter": 278.0769,
        "meta_mean_anomaly": 81.9929,
        "meta_ephemeris_type": 0,
        "meta_classification_type": "U",
        "meta_norad_cat_id": 66590,
        "meta_element_set_no": 999,
        "meta_rev_at_epoch": 590,
        "meta_bstar": 0.0010272237,
        "meta_mean_motion_dot": 0.0004287,
        "meta_mean_motion_ddot": 0,
        "tle_line1": "1 66590U 25270C   25356.10409946  .00042870  00000+0  10272-2 0  9990",
        "tle_line2": "2 66590  43.0006 138.3695 0001397 278.0769  81.9929 15.40715524  5901"
      },
      "geometry": {
        "type": "Point",
        "coordinates": [
          -19.311215426269847,
          -22.41942318021685
        ]
      }
    },
    {
      "type": "Feature",
      "properties": {
        "norad_id": 66591,
        "name": "STARLINK-36058",
        "group": "last-30-days",
        "lat": -35.81838459825806,
        "lon": 83.44032054993215,
        "alt_km": 445.89436801968986,
        "timestamp": "2025-12-22T18:58:52.136831+00:00",
        "meta_object_name": "STARLINK-36058",
        "meta_object_id": "2025-270D",
        "meta_epoch": "2025-12-22T06:00:02.000160",
        "meta_mean_motion": 15.40681699,
        "meta_eccentricity": 0.00014969,
        "meta_inclination": 43.0001,
        "meta_ra_of_asc_node": 137.3164,
        "meta_arg_of_pericenter": 294.9732,
        "meta_mean_anomaly": 242.4446,
        "meta_ephemeris_type": 0,
        "meta_classification_type": "U",
        "meta_norad_cat_id": 66591,
        "meta_element_set_no": 999,
        "meta_rev_at_epoch": 592,
        "meta_bstar": 0.0018085904,
        "meta_mean_motion_dot": 0.00075955,
        "meta_mean_motion_ddot": 0,
        "tle_line1": "1 66591U 25270D   25356.25002315  .00075955  00000+0  18086-2 0  9997",
        "tle_line2": "2 66591  43.0001 137.3164 0001496 294.9732 242.4446 15.40681699  5929"
      },
      "geometry": {
        "type": "Point",
        "coordinates": [
          83.44032054993215,
          -35.81838459825806
        ]
      }
    },
    {
      "type": "Feature",
      "properties": {
        "norad_id": 66592,
        "name": "STARLINK-36066",
        "group": "last-30-days",
        "lat": 41.63821833412905,
        "lon": -152.69730616302738,
        "alt_km": 439.57804053032305,
        "timestamp": "2025-12-22T18:58:52.136842+00:00",
        "meta_object_name": "STARLINK-36066",
        "meta_object_id": "2025-270E",
        "meta_epoch": "2025-12-22T03:05:22.945056",
        "meta_mean_motion": 15.40707786,
        "meta_eccentricity": 0.0003425,
        "meta_inclination": 43.0004,
        "meta_ra_of_asc_node": 138.5584,
        "meta_arg_of_pericenter": 263.6107,
        "meta_mean_anomaly": 96.436,
        "meta_ephemeris_type": 0,
        "meta_classification_type": "U",
        "meta_norad_cat_id": 66592,
        "meta_element_set_no": 999,
        "meta_rev_at_epoch": 569,
        "meta_bstar": 0.00070293192,
        "meta_mean_motion_dot": 0.00029183,
        "meta_mean_motion_ddot": 0,
        "tle_line1": "1 66592U 25270E   25356.12873779  .00029183  00000+0  70293-3 0  9995",
        "tle_line2": "2 66592  43.0004 138.5584 0003425 263.6107  96.4360 15.40707786  5697"
      },
      "geometry": {
        "type": "Point",
        "coordinates": [
          -152.69730616302738,
          41.63821833412905
        ]
      }
    },
    {
      "type": "Feature",
      "properties": {
        "norad_id": 66593,
        "name": "STARLINK-36031",
        "group": "last-30-days",
        "lat": 10.63710175645845,
        "lon": -57.09920521513036,
        "alt_km": 442.47055284704675,
        "timestamp": "2025-12-22T18:58:52.136852+00:00",
        "meta_object_name": "STARLINK-36031",
        "meta_object_id": "2025-270F",
        "meta_epoch": "2025-12-22T02:42:48.560256",
        "meta_mean_motion": 15.40728409,
        "meta_eccentricity": 0.00011946,
        "meta_inclination": 42.9962,
        "meta_ra_of_asc_node": 138.4375,
        "meta_arg_of_pericenter": 279.7559,
        "meta_mean_anomaly": 80.3162,
        "meta_ephemeris_type": 0,
        "meta_classification_type": "U",
        "meta_norad_cat_id": 66593,
        "meta_element_set_no": 999,
        "meta_rev_at_epoch": 579,
        "meta_bstar": 0.0010474943,
        "meta_mean_motion_dot": 0.00043745,
        "meta_mean_motion_ddot": 0,
        "tle_line1": "1 66593U 25270F   25356.11306204  .00043745  00000+0  10475-2 0  9994",
        "tle_line2": "2 66593  42.9962 138.4375 0001194 279.7559  80.3162 15.40728409  5794"
      },
      "geometry": {
        "type": "Point",
        "coordinates": [
          -57.09920521513036,
          10.63710175645845
        ]
      }
    },
    {
      "type": "Feature",
      "properties": {
        "norad_id": 66594,
        "name": "STARLINK-36032",
        "group": "last-30-days",
        "lat": -42.64707013740973,
        "lon": 35.56115662222443,
        "alt_km": 446.2612649996763,
        "timestamp": "2025-12-22T18:58:52.136862+00:00",
        "meta_object_name": "STARLINK-36032",
        "meta_object_id": "2025-270G",
        "meta_epoch": "2025-12-22T06:00:02.000160",
        "meta_mean_motion": 15.40615552,
        "meta_eccentricity": 0.00017044,
        "meta_inclination": 43.0001,
        "meta_ra_of_asc_node": 137.4071,
        "meta_arg_of_pericenter": 268.3583,
        "meta_mean_anomaly": 231.8613,
        "meta_ephemeris_type": 0,
        "meta_classification_type": "U",
        "meta_norad_cat_id": 66594,
        "meta_element_set_no": 999,
        "meta_rev_at_epoch": 566,
        "meta_bstar": 0.0019117661,
        "meta_mean_motion_dot": 0.00080174,
        "meta_mean_motion_ddot": 0,
        "tle_line1": "1 66594U 25270G   25356.25002315  .00080174  00000+0  19118-2 0  9996",
        "tle_line2": "2 66594  43.0001 137.4071 0001704 268.3583 231.8613 15.40615552  5665"
      },
      "geometry": {
        "type": "Point",
        "coordinates": [
          35.56115662222443,
          -42.64707013740973
        ]
      }
    },
    {
      "type": "Feature",
      "properties": {
        "norad_id": 66595,
        "name": "STARLINK-35711",
        "group": "last-30-days",
        "lat": 32.31992434138773,
        "lon": 176.6854759503105,
        "alt_km": 408.58821458493003,
        "timestamp": "2025-12-22T18:58:52.136873+00:00",
        "meta_object_name": "STARLINK-35711",
        "meta_object_id": "2025-270H",
        "meta_epoch": "2025-12-20T03:22:00.602400",
        "meta_mean_motion": 15.5018184,
        "meta_eccentricity": 0.00034215,
        "meta_inclination": 42.999,
        "meta_ra_of_asc_node": 149.4265,
        "meta_arg_of_pericenter": 341.0071,
        "meta_mean_anomaly": 19.0661,
        "meta_ephemeris_type": 0,
        "meta_classification_type": "U",
        "meta_norad_cat_id": 66595,
        "meta_element_set_no": 999,
        "meta_rev_at_epoch": 560,
        "meta_bstar": 0.0012292638,
        "meta_mean_motion_dot": 0.00071426,
        "meta_mean_motion_ddot": 0,
        "tle_line1": "1 66595U 25270H   25354.14028475  .00071426  00000+0  12293-2 0  9995",
        "tle_line2": "2 66595  42.9990 149.4265 0003421 341.0071  19.0661 15.50181840  5600"
      },
      "geometry": {
        "type": "Point",
        "coordinates": [
          176.6854759503105,
          32.31992434138773
        ]
      }
    },
    {
      "type": "Feature",
      "properties": {
        "norad_id": 66596,
        "name": "STARLINK-35811",
        "group": "last-30-days",
        "lat": 32.68801964846051,
        "lon": 178.3206699200943,
        "alt_km": 440.7874639844149,
        "timestamp": "2025-12-22T18:58:52.136884+00:00",
        "meta_object_name": "STARLINK-35811",
        "meta_object_id": "2025-270J",
        "meta_epoch": "2025-12-21T17:51:42.369696",
        "meta_mean_motion": 15.40729459,
        "meta_eccentricity": 0.00045247,
        "meta_inclination": 43.0021,
        "meta_ra_of_asc_node": 140.8369,
        "meta_arg_of_pericenter": 268.1923,
        "meta_mean_anomaly": 91.8415,
        "meta_ephemeris_type": 0,
        "meta_classification_type": "U",
        "meta_norad_cat_id": 66596,
        "meta_element_set_no": 999,
        "meta_rev_at_epoch": 584,
        "meta_bstar": 0.00087175988,
        "meta_mean_motion_dot": 0.0003633,
        "meta_mean_motion_ddot": 0,
        "tle_line1": "1 66596U 25270J   25355.74424039  .00036330  00000+0  87176-3 0  9997",
        "tle_line2": "2 66596  43.0021 140.8369 0004524 268.1923  91.8415 15.40729459  5842"
      },
      "geometry": {
        "type": "Point",
        "coordinates": [
          178.3206699200943,
          32.68801964846051
        ]
      }
    }
  ]
}